{"type": "FeatureCollection", "features": [ {"type": "Feature", "properties": {"norad_id": 65304, "name": "DRAGON CRS-33", "group": "stations", "lat": 50.46699805484599, "lon": -133.29022521256954, "alt_km": 413.3080681004385, "timestamp": "2025-12-10T14:53:35.962045+00:00", "meta": {"OBJECT_NAME": "DRAGON CRS-33", "OBJECT_ID": "2025-186A", "EPOCH": "2025-12-10T03:42:55.481184", "MEAN_MOTION": 15.49465664, "ECCENTRICITY": 0.0003395, "INCLINATION": 51.6306, "RA_OF_ASC_NODE": 155.2782, "ARG_OF_PERICENTER": 228.7876, "MEAN_ANOMALY": 131.282, "EPHEMERIS_TYPE": 0, "CLASSIFICATION_TYPE": "U", "NORAD_CAT_ID": 65304, "ELEMENT_SET_NO": 999, "REV_AT_EPOCH": 11, "BSTAR": 0.00027248017, "MEAN_MOTION_DOT": 0.00014837, "MEAN_MOTION_DDOT": 0}, "tle": {"line1": "1 65304U 25186A   25344.15480881  .00014837  00000+0  27248-3 0  9991", "line2": "2 65304  51.6306 155.2782 0003395 228.7876 131.2820 15.49465664   110"}}, "geometry": {"type": "Point", "coordinates": [-133.29022521256954, 50.46699805484599]}}, {"type": "Feature", "properties": {"norad_id": 65586, "name": "PROGRESS-MS 32", "group": "stations", "lat": 50.46699818258519, "lon": -133.2902243210333, "alt_km": 413.30806807131194, "timestamp": "2025-12-10T14:53:35.962054+00:00", "meta": {"OBJECT_NAME": "PROGRESS-MS 32", "OBJECT_ID": "2025-204A", "EPOCH": "2025-12-10T03:42:55.481184", "MEAN_MOTION": 15.49465664, "ECCENTRICITY": 0.0003395, "INCLINATION": 51.6306, "RA_OF_ASC_NODE": 155.2782, "ARG_OF_PERICENTER": 228.7876, "MEAN_ANOMALY": 131.282, "EPHEMERIS_TYPE": 0, "CLASSIFICATION_TYPE": "U", "NORAD_CAT_ID": 65586, "ELEMENT_SET_NO": 999, "REV_AT_EPOCH": 27, "BSTAR": 0.00027248017, "MEAN_MOTION_DOT": 0.00014837, "MEAN_MOTION_DDOT": 0}, "tle": {"line1": "1 65586U 25204A   25344.15480881  .00014837  00000+0  27248-3 0  9994", "line2": "2 65586  51.6306 155.2782 0003395 228.7876 131.2820 15.49465664   279"}}, "geometry": {"type": "Point", "coordinates": [-133.2902243210333, 50.46699818258519]}}, {"type": "Feature", "properties": {"norad_id": 65616, "name": "CYGNUS NG-23", "group": "stations", "lat": 50.46699831032421, "lon": -133.29022342949833, "alt_km": 413.3080680421908, "timestamp": "2025-12-10T14:53:35.962063+00:00", "meta": {"OBJECT_NAME": "CYGNUS NG-23", "OBJECT_ID": "2025-208A", "EPOCH": "2025-12-10T03:42:55.481184", "MEAN_MOTION": 15.49465664, "ECCENTRICITY": 0.0003395, "INCLINATION": 51.6306, "RA_OF_ASC_NODE": 155.2782, "ARG_OF_PERICENTER": 228.7876, "MEAN_ANOMALY": 131.282, "EPHEMERIS_TYPE": 0, "CLASSIFICATION_TYPE": "U", "NORAD_CAT_ID": 65616, "ELEMENT_SET_NO": 999, "REV_AT_EPOCH": 22, "BSTAR": 0.00027248017, "MEAN_MOTION_DOT": 0.00014837, "MEAN_MOTION_DDOT": 0}, "tle": {"line1": "1 65616U 25208A   25344.15480881  .00014837  00000+0  27248-3 0  9992", "line2": "2 65616  51.6306 155.2782 0003395 228.7876 131.2820 15.49465664   228"}}, "geometry": {"type": "Point", "coordinates": [-133.29022342949833, 50.46699831032421]}}, {"type": "Feature", "properties": {"norad_id": 65729, "name": "DRAGONFLY", "group": "stations", "lat": -47.5469939001877, "lon": 26.63264379812453, "alt_km": 356.44651449578305, "timestamp": "2025-12-10T14:53:35.962072+00:00", "meta": {"OBJECT_NAME": "DRAGONFLY", "OBJECT_ID": "1998-067XH", "EPOCH": "2025-12-09T11:52:26.095872", "MEAN_MOTION": 15.70499103, "ECCENTRICITY": 0.00065374, "INCLINATION": 51.6245, "RA_OF_ASC_NODE": 152.3636, "ARG_OF_PERICENTER": 255.9884, "MEAN_ANOMALY": 104.0387, "EPHEMERIS_TYPE": 0, "CLASSIFICATION_TYPE": "U", "NORAD_CAT_ID": 65729, "ELEMENT_SET_NO": 999, "REV_AT_EPOCH": 1265, "BSTAR": 0.0014915016, "MEAN_MOTION_DOT": 0.00190953, "MEAN_MOTION_DDOT": 0}, "tle": {"line1": "1 65729U 98067XH  25343.49474648  .00190953  00000+0  14915-2 0  9990", "line2": "2 65729  51.6245 152.3636 0006537 255.9884 104.0387 15.70499103 12658"}}, "geometry": {"type": "Point", "coordinates": [26.63264379812453, -47.5469939001877]}}, {"type": "Feature", "properties": {"norad_id": 65731, "name": "1998-067XK", "group": "stations", "lat": -30.173184919456737, "lon": 120.5490072166747, "alt_km": 376.3831092849441, "timestamp": "2025-12-10T14:53:35.962085+00:00", "meta": {"OBJECT_NAME": "1998-067XK", "OBJECT_ID": "1998-067XK", "EPOCH": "2025-12-10T04:20:10.861728", "MEAN_MOTION": 15.65053427, "ECCENTRICITY": 0.0005212, "INCLINATION": 51.6282, "RA_OF_ASC_NODE": 150.21, "ARG_OF_PERICENTER": 229.5199, "MEAN_ANOMALY": 130.5343, "EPHEMERIS_TYPE": 0, "CLASSIFICATION_TYPE": "U", "NORAD_CAT_ID": 65731, "ELEMENT_SET_NO": 999, "REV_AT_EPOCH": 1274, "BSTAR": 0.0012135732, "MEAN_MOTION_DOT": 0.00123207, "MEAN_MOTION_DDOT": 0}, "tle": {"line1": "1 65731U 98067XK  25344.18068127  .00123207  00000+0  12136-2 0  9992", "line2": "2 65731  51.6282 150.2100 0005212 229.5199 130.5343 15.65053427 12745"}}, "geometry": {"type": "Point", "coordinates": [120.5490072166747, -30.173184919456737]}}, {"type": "Feature", "properties": {"norad_id": 65732, "name": "RSP-03", "group": "stations", "lat": -51.58934006734109, "lon": 59.30960694712851, "alt_km": 366.3829319734814, "timestamp": "2025-12-10T14:53:35.962095+00:00", "meta": {"OBJECT_NAME": "RSP-03", "OBJECT_ID": "1998-067XL", "EPOCH": "2025-12-09T20:54:46.609920", "MEAN_MOTION": 15.6763654, "ECCENTRICITY": 0.00060323, "INCLINATION": 51.6264, "RA_OF_ASC_NODE": 151.1351, "ARG_OF_PERICENTER": 231.1748, "MEAN_ANOMALY": 128.871, "EPHEMERIS_TYPE": 0, "CLASSIFICATION_TYPE": "U", "NORAD_CAT_ID": 65732, "ELEMENT_SET_NO": 999, "REV_AT_EPOCH": 1271, "BSTAR": 0.001351733, "MEAN_MOTION_DOT": 0.00152975, "MEAN_MOTION_DDOT": 0}, "tle": {"line1": "1 65732U 98067XL  25343.87137280  .00152975  00000+0  13517-2 0  9993", "line2": "2 65732  51.6264 151.1351 0006032 231.1748 128.8710 15.67636540 12714"}}, "geometry": {"type": "Point", "coordinates": [59.30960694712851, -51.58934006734109]}}, {"type": "Feature", "properties": {"norad_id": 65733, "name": "GHS-01", "group": "stations", "lat": 28.233683928875788, "lon": -59.092657146798395, "alt_km": 347.54711527755353, "timestamp": "2025-12-10T14:53:35.962104+00:00", "meta": {"OBJECT_NAME": "GHS-01", "OBJECT_ID": "1998-067XM", "EPOCH": "2025-12-09T18:28:18.827904", "MEAN_MOTION": 15.73188946, "ECCENTRICITY": 0.00069378, "INCLINATION": 51.6282, "RA_OF_ASC_NODE": 150.4557, "ARG_OF_PERICENTER": 260.0742, "MEAN_ANOMALY": 99.9474, "EPHEMERIS_TYPE": 0, "CLASSIFICATION_TYPE": "U", "NORAD_CAT_ID": 65733, "ELEMENT_SET_NO": 999, "REV_AT_EPOCH": 1271, "BSTAR": 0.0015641531, "MEAN_MOTION_DOT": 0.00225395, "MEAN_MOTION_DDOT": 0}, "tle": {"line1": "1 65733U 98067XM  25343.76966236  .00225395  00000+0  15642-2 0  9991", "line2": "2 65733  51.6282 150.4557 0006937 260.0742  99.9474 15.73188946 12718"}}, "geometry": {"type": "Point", "coordinates": [-59.092657146798395, 28.233683928875788]}}, {"type": "Feature", "properties": {"norad_id": 65941, "name": "YOTSUBA-KULOVER", "group": "stations", "lat": 37.772238891601134, "lon": -67.25256842947272, "alt_km": 385.58162303567224, "timestamp": "2025-12-10T14:53:35.962114+00:00", "meta": {"OBJECT_NAME": "YOTSUBA-KULOVER", "OBJECT_ID": "1998-067XN", "EPOCH": "2025-12-10T06:39:08.151552", "MEAN_MOTION": 15.58984772, "ECCENTRICITY": 0.00015635, "INCLINATION": 51.6286, "RA_OF_ASC_NODE": 152.3518, "ARG_OF_PERICENTER": 229.167, "MEAN_ANOMALY": 130.9187, "EPHEMERIS_TYPE": 0, "CLASSIFICATION_TYPE": "U", "NORAD_CAT_ID": 65941, "ELEMENT_SET_NO": 999, "REV_AT_EPOCH": 947, "BSTAR": 0.0011499536, "MEAN_MOTION_DOT": 0.00091734, "MEAN_MOTION_DDOT": 0}, "tle": {"line1": "1 65941U 98067XN  25344.27717768  .00091734  00000+0  11500-2 0  9990", "line2": "2 65941  51.6286 152.3518 0001563 229.1670 130.9187 15.58984772  9477"}}, "geometry": {"type": "Point", "coordinates": [-67.25256842947272, 37.772238891601134]}}, {"type": "Feature", "properties": {"norad_id": 65942, "name": "BOTAN", "group": "stations", "lat": 48.08517318720981, "lon": -148.0439281555895, "alt_km": 376.57432049317504, "timestamp": "2025-12-10T14:53:35.962124+00:00", "meta": {"OBJECT_NAME": "BOTAN", "OBJECT_ID": "1998-067XP", "EPOCH": "2025-12-09T18:37:41.598624", "MEAN_MOTION": 15.6202186, "ECCENTRICITY": 0.00035332, "INCLINATION": 51.6281, "RA_OF_ASC_NODE": 154.2559, "ARG_OF_PERICENTER": 214.7567, "MEAN_ANOMALY": 145.3196, "EPHEMERIS_TYPE": 0, "CLASSIFICATION_TYPE": "U", "NORAD_CAT_ID": 65942, "ELEMENT_SET_NO": 999, "REV_AT_EPOCH": 940, "BSTAR": 0.0013930428, "MEAN_MOTION_DOT": 0.00125565, "MEAN_MOTION_DDOT": 0}, "tle": {"line1": "1 65942U 98067XP  25343.77617591  .00125565  00000+0  13930-2 0  9997", "line2": "2 65942  51.6281 154.2559 0003533 214.7567 145.3196 15.62021860  9401"}}, "geometry": {"type": "Point", "coordinates": [-148.0439281555895, 48.08517318720981]}}, {"type": "Feature", "properties": {"norad_id": 65943, "name": "E-KAGAKU-1", "group": "stations", "lat": 37.78063756010195, "lon": -67.27015489367847, "alt_km": 383.7334459670319, "timestamp": "2025-12-10T14:53:35.962134+00:00", "meta": {"OBJECT_NAME": "E-KAGAKU-1", "OBJECT_ID": "1998-067XQ", "EPOCH": "2025-12-10T06:39:08.237952", "MEAN_MOTION": 15.5900432, "ECCENTRICITY": 0.00052507, "INCLINATION": 51.6298, "RA_OF_ASC_NODE": 152.3458, "ARG_OF_PERICENTER": 191.2269, "MEAN_ANOMALY": 168.8608, "EPHEMERIS_TYPE": 0, "CLASSIFICATION_TYPE": "U", "NORAD_CAT_ID": 65943, "ELEMENT_SET_NO": 999, "REV_AT_EPOCH": 947, "BSTAR": 0.0012588803, "MEAN_MOTION_DOT": 0.00100705, "MEAN_MOTION_DDOT": 0}, "tle": {"line1": "1 65943U 98067XQ  25344.27717868  .00100705  00000+0  12589-2 0  9990", "line2": "2 65943  51.6298 152.3458 0005250 191.2269 168.8608 15.59004320  9476"}}, "geometry": {"type": "Point", "coordinates": [-67.27015489367847, 37.78063756010195]}}]}